[
    {
        "Altitude(m)": 607910.9885258339,
        "Argument of Periapsis(deg)": 0.0,
        "Eccentricity": 0.0,
        "Inclination(deg)": 60.0,
        "Latitude(deg)": -14.29282857562236,
        "Longitude(deg)": 108.44264654953346,
        "Mean Anomaly(deg)": 196.36359999999996,
        "RAAN(deg)": 20.0,
        "Satellite Name": "Test1 100",
        "Satellite Number": 100,
        "Semi-Major Axis(m)": 6980739.136638005,
        "Time(s)": 0
    },
    {
        "Altitude(m)": 608060.2214258554,
        "Argument of Periapsis(deg)": 0.00010418945913296404,
        "Eccentricity": 0.0,
        "Inclination(deg)": 60.0,
        "Latitude(deg)": -14.826490004838872,
        "Longitude(deg)": 108.73125579931242,
        "Mean Anomaly(deg)": 196.9837061454618,
        "RAAN(deg)": 19.99957995086026,
        "Satellite Name": "Test1 100",
        "Satellite Number": 100,
        "Semi-Major Axis(m)": 6980739.136638005,
        "Time(s)": 10
    },
    {
        "Altitude(m)": 608211.8845408564,
        "Argument of Periapsis(deg)": 0.0002083789182659281,
        "Eccentricity": 0.0,
        "Inclination(deg)": 60.0,
        "Latitude(deg)": -15.359635217997214,
        "Longitude(deg)": 109.02147382695478,
        "Mean Anomaly(deg)": 197.60381229092366,
        "RAAN(deg)": 19.999159901720517,
        "Satellite Name": "Test1 100",
        "Satellite Number": 100,
        "Semi-Major Axis(m)": 6980739.136638005,
        "Time(s)": 20
    },
    {
        "Altitude(m)": 608365.9297897277,
        "Argument of Periapsis(deg)": 0.00031256837739889213,
        "Eccentricity": 0.0,
        "Inclination(deg)": 60.0,
        "Latitude(deg)": -15.892243006003847,
        "Longitude(deg)": 109.31336809972383,
        "Mean Anomaly(deg)": 198.22391843638547,
        "RAAN(deg)": 19.99873985258077,
        "Satellite Name": "Test1 100",
        "Satellite Number": 100,
        "Semi-Major Axis(m)": 6980739.136638005,
        "Time(s)": 30
    },
    {
        "Altitude(m)": 608522.307893807,
        "Argument of Periapsis(deg)": 0.0004167578365318562,
        "Eccentricity": 0.0,
        "Inclination(deg)": 60.0,
        "Latitude(deg)": -16.424291827508704,
        "Longitude(deg)": 109.60700760388349,
        "Mean Anomaly(deg)": 198.8440245818473,
        "RAAN(deg)": 19.998319803441028,
        "Satellite Name": "Test1 100",
        "Satellite Number": 100,
        "Semi-Major Axis(m)": 6980739.136638005,
        "Time(s)": 40
    },
    {
        "Altitude(m)": 608680.9683982101,
        "Argument of Periapsis(deg)": 0.0005209472956648203,
        "Eccentricity": 0.0,
        "Inclination(deg)": 60.0,
        "Latitude(deg)": -16.955759792884077,
        "Longitude(deg)": 109.90246188002729,
        "Mean Anomaly(deg)": 199.46413072730914,
        "RAAN(deg)": 19.997899754301287,
        "Satellite Name": "Test1 100",
        "Satellite Number": 100,
        "Semi-Major Axis(m)": 6980739.136638005,
        "Time(s)": 50
    },
    {
        "Altitude(m)": 608841.8596936773,
        "Argument of Periapsis(deg)": 0.0006251367547977843,
        "Eccentricity": 0.0,
        "Inclination(deg)": 60.0,
        "Latitude(deg)": -17.48662464772375,
        "Longitude(deg)": 110.1998015721181,
        "Mean Anomaly(deg)": 200.08423687277096,
        "RAAN(deg)": 19.997479705161545,
        "Satellite Name": "Test1 100",
        "Satellite Number": 100,
        "Semi-Major Axis(m)": 6980739.136638005,
        "Time(s)": 60
    },
    {
        "Altitude(m)": 609004.9290390088,
        "Argument of Periapsis(deg)": 0.0007293262139307483,
        "Eccentricity": 0.0,
        "Inclination(deg)": 60.0,
        "Latitude(deg)": -18.01686375583899,
        "Longitude(deg)": 110.49909897739091,
        "Mean Anomaly(deg)": 200.7043430182328,
        "RAAN(deg)": 19.9970596560218,
        "Satellite Name": "Test1 100",
        "Satellite Number": 100,
        "Semi-Major Axis(m)": 6980739.136638005,
        "Time(s)": 70
    },
    {
        "Altitude(m)": 609170.122584009,
        "Argument of Periapsis(deg)": 0.0008335156730637124,
        "Eccentricity": 0.0,
        "Inclination(deg)": 60.0,
        "Latitude(deg)": -18.546454081725738,
        "Longitude(deg)": 110.8004270842682,
        "Mean Anomaly(deg)": 201.32444916369465,
        "RAAN(deg)": 19.99663960688206,
        "Satellite Name": "Test1 100",
        "Satellite Number": 100,
        "Semi-Major Axis(m)": 6980739.136638005,
        "Time(s)": 80
    },
    {
        "Altitude(m)": 609337.3853929889,
        "Argument of Periapsis(deg)": 0.0009377051321966765,
        "Eccentricity": 0.0,
        "Inclination(deg)": 60.0,
        "Latitude(deg)": -19.07537217248118,
        "Longitude(deg)": 111.10386012405583,
        "Mean Anomaly(deg)": 201.94455530915644,
        "RAAN(deg)": 19.996219557742315,
        "Satellite Name": "Test1 100",
        "Satellite Number": 100,
        "Semi-Major Axis(m)": 6980739.136638005,
        "Time(s)": 90
    },
    {
        "Altitude(m)": 609506.6614687582,
        "Argument of Periapsis(deg)": 0.0010418945913296407,
        "Eccentricity": 0.0,
        "Inclination(deg)": 60.0,
        "Latitude(deg)": -19.603594139143535,
        "Longitude(deg)": 111.409474123568,
        "Mean Anomaly(deg)": 202.5646614546183,
        "RAAN(deg)": 19.995799508602573,
        "Satellite Name": "Test1 100",
        "Satellite Number": 100,
        "Semi-Major Axis(m)": 6980739.136638005,
        "Time(s)": 100
    },
    {
        "Altitude(m)": 609677.8937771419,
        "Argument of Periapsis(deg)": 0.0011460840504626045,
        "Eccentricity": 0.0,
        "Inclination(deg)": 60.0,
        "Latitude(deg)": -20.131095637427432,
        "Longitude(deg)": 111.71734594582561,
        "Mean Anomaly(deg)": 203.1847676000801,
        "RAAN(deg)": 19.99537945946283,
        "Satellite Name": "Test1 100",
        "Satellite Number": 100,
        "Semi-Major Axis(m)": 6980739.136638005,
        "Time(s)": 110
    },
    {
        "Altitude(m)": 609851.024271967,
        "Argument of Periapsis(deg)": 0.0012502735095955685,
        "Eccentricity": 0.0,
        "Inclination(deg)": 60.0,
        "Latitude(deg)": -20.657851847831292,
        "Longitude(deg)": 112.02755384459257,
        "Mean Anomaly(deg)": 203.80487374554195,
        "RAAN(deg)": 19.99495941032309,
        "Satellite Name": "Test1 100",
        "Satellite Number": 100,
        "Semi-Major Axis(m)": 6980739.136638005,
        "Time(s)": 120
    },
    {
        "Altitude(m)": 610025.993920557,
        "Argument of Periapsis(deg)": 0.0013544629687285324,
        "Eccentricity": 0.0,
        "Inclination(deg)": 60.0,
        "Latitude(deg)": -21.183837455086557,
        "Longitude(deg)": 112.34017801988972,
        "Mean Anomaly(deg)": 204.42497989100374,
        "RAAN(deg)": 19.994539361183342,
        "Satellite Name": "Test1 100",
        "Satellite Number": 100,
        "Semi-Major Axis(m)": 6980739.136638005,
        "Time(s)": 130
    },
    {
        "Altitude(m)": 610202.7427296527,
        "Argument of Periapsis(deg)": 0.0014586524278614966,
        "Eccentricity": 0.0,
        "Inclination(deg)": 60.0,
        "Latitude(deg)": -21.709026626921453,
        "Longitude(deg)": 112.65529966162777,
        "Mean Anomaly(deg)": 205.04508603646565,
        "RAAN(deg)": 19.9941193120436,
        "Satellite Name": "Test1 100",
        "Satellite Number": 100,
        "Semi-Major Axis(m)": 6980739.136638005,
        "Time(s)": 140
    },
    {
        "Altitude(m)": 610381.2097718092,
        "Argument of Periapsis(deg)": 0.0015628418869944607,
        "Eccentricity": 0.0,
        "Inclination(deg)": 60.0,
        "Latitude(deg)": -22.23339299211016,
        "Longitude(deg)": 112.97300150711258,
        "Mean Anomaly(deg)": 205.66519218192744,
        "RAAN(deg)": 19.99369926290386,
        "Satellite Name": "Test1 100",
        "Satellite Number": 100,
        "Semi-Major Axis(m)": 6980739.136638005,
        "Time(s)": 150
    },
    {
        "Altitude(m)": 610561.3332122229,
        "Argument of Periapsis(deg)": 0.0016670313461274247,
        "Eccentricity": 0.0,
        "Inclination(deg)": 60.0,
        "Latitude(deg)": -22.75690961777775,
        "Longitude(deg)": 113.29336839955678,
        "Mean Anomaly(deg)": 206.28529832738928,
        "RAAN(deg)": 19.99327921376412,
        "Satellite Name": "Test1 100",
        "Satellite Number": 100,
        "Semi-Major Axis(m)": 6980739.136638005,
        "Time(s)": 160
    },
    {
        "Altitude(m)": 610743.050335978,
        "Argument of Periapsis(deg)": 0.0017712208052603888,
        "Eccentricity": 0.0,
        "Inclination(deg)": 60.0,
        "Latitude(deg)": -23.279548985928503,
        "Longitude(deg)": 113.61648633472724,
        "Mean Anomaly(deg)": 206.9054044728511,
        "RAAN(deg)": 19.992859164624374,
        "Satellite Name": "Test1 100",
        "Satellite Number": 100,
        "Semi-Major Axis(m)": 6980739.136638005,
        "Time(s)": 170
    },
    {
        "Altitude(m)": 610926.2975757167,
        "Argument of Periapsis(deg)": 0.001875410264393353,
        "Eccentricity": 0.0,
        "Inclination(deg)": 60.0,
        "Latitude(deg)": -23.80128296916827,
        "Longitude(deg)": 113.94244302147266,
        "Mean Anomaly(deg)": 207.52551061831295,
        "RAAN(deg)": 19.99243911548463,
        "Satellite Name": "Test1 100",
        "Satellite Number": 100,
        "Semi-Major Axis(m)": 6980739.136638005,
        "Time(s)": 180
    },
    {
        "Altitude(m)": 611111.0105396744,
        "Argument of Periapsis(deg)": 0.0019795997235263173,
        "Eccentricity": 0.0,
        "Inclination(deg)": 60.0,
        "Latitude(deg)": -24.32208280558671,
        "Longitude(deg)": 114.27132844325118,
        "Mean Anomaly(deg)": 208.14561676377474,
        "RAAN(deg)": 19.992019066344888,
        "Satellite Name": "Test1 100",
        "Satellite Number": 100,
        "Semi-Major Axis(m)": 6980739.136638005,
        "Time(s)": 190
    }
]